HST                     
1 20580U 90037B   23336.09310793  .00014604  00000+0  74903-3 0  9993
2 20580  28.4677 229.4306 0002630  40.3235  68.3894 15.15083389646934
POLAR                   
1 23802U 96013A   23333.65653167  .00000197  00000+0  00000+0 0  9992
2 23802  78.9853 236.5412 5797418 240.6366  49.9237  1.29847033132779
SWAS                    
1 25560U 98071A   23336.60217199  .00007311  00000+0  61995-3 0  9999
2 25560  69.9000  79.8039 0009653 247.8120 112.2015 14.98304493357773
CXO                     
1 25867U 99040B   23337.18489448  .00000577  00000+0  00000+0 0  9991
2 25867  37.8134 175.2086 9031540 280.0963 359.8344  0.37811457 13810
XMM-NEWTON              
1 25989U 99066A   23334.03687569 -.00000036  00000+0  00000+0 0  9990
2 25989  68.5365 295.8603 5352354  80.1226   5.7243  0.50135512 18357
TERRA                   
1 25994U 99068A   23336.53168247  .00001150  00000+0  25187-3 0  9996
2 25994  98.0761  40.6034 0000638 235.8264 235.6779 14.59469347274213
CLUSTER II-FM7 (SAMBA)  
1 26410U 00041A   23337.58949089  .00000705  00000+0  00000+0 0  9998
2 26410 137.4237 354.5192 6968364 209.0427   0.0681  0.44211303 16175
CLUSTER II-FM6 (SALSA)  
1 26411U 00041B   23337.58950637  .00001358  00000+0  00000+0 0  9995
2 26411 144.1504   8.3801 8614003 222.5331   0.1170  0.44222250 27240
CLUSTER II-FM5 (RUMBA)  
1 26463U 00045A   23337.58640660  .00001367  00000+0  00000+0 0  9998
2 26463 146.7973   6.9356 8115604 221.8415   0.0348  0.44220185 16117
CLUSTER II-FM8 (TANGO)  
1 26464U 00045B   23337.58923539  .00000705  00000+0  00000+0 0  9993
2 26464 137.4208 354.5131 6965321 209.0396   0.0860  0.44221777 16186
ODIN                    
1 26702U 01007A   23336.55414845  .00012229  00000+0  60994-3 0  9994
2 26702  97.4955 348.2280 0006658 245.6811 114.3728 15.17653865246888
TIMED                   
1 26998U 01055B   23336.36482277  .00005616  00000+0  57912-3 0  9995
2 26998  74.0722 296.7181 0001683 307.2504  52.8525 14.90452546192347
INTEGRAL                
1 27540U 02048A   23334.43566920  .00000054  00000+0  00000+0 0  9999
2 27540  86.7468  30.4485 8708453 287.4670   1.7981  0.37582337 23135
CORIOLIS                
1 27640U 03001A   23336.56955181  .00000325  00000+0  17543-3 0  9992
2 27640  98.7154 341.9629 0014251   8.3988 351.7424 14.19355562 82601
SORCE                   
1 27651U 03004A   23336.52304612  .00005695  00000+0  54478-3 0  9993
2 27651  39.9930 114.4777 0020720 275.9036  83.9393 14.93339596132698
MOST                    
1 27843U 03031D   23336.60732842  .00000235  00000+0  12890-3 0  9992
2 27843  98.7079 341.4340 0010845  53.9031 306.3148 14.20869527 58961
SCISAT 1                
1 27858U 03036A   23336.06998314  .00002332  00000+0  32299-3 0  9996
2 27858  73.9322 211.7396 0006789 134.8853 225.2874 14.78637339 94126
SWIFT                   
1 28485U 04047A   23336.53912114  .00012448  00000+0  63710-3 0  9993
2 28485  20.5544 150.3096 0008385 251.9591 107.9931 15.14076173 44136
CLOUDSAT                
1 29107U 06016A   23336.54624327  .00001005  00000+0  19890-3 0  9997
2 29107  98.3966 309.3953 0004313  78.8799 281.2887 14.64534788937019
CALIPSO                 
1 29108U 06016B   23336.53325869  .00003541  00000+0  67224-3 0  9997
2 29108  98.3977 308.9131 0001278  83.2280 276.9068 14.64846466937007
HINODE (SOLAR-B)        
1 29479U 06041A   23336.56463753  .00001728  00000+0  32444-3 0  9995
2 29479  98.0995 349.6499 0017764 349.5354  10.5478 14.65876669918826
SJ-6C                   
1 29505U 06046A   23336.54605521  .00008566  00000+0  68070-3 0  9990
2 29505  97.7358 359.3064 0008655  75.3332 284.8850 15.00670878932369
SJ-6D                   
1 29506U 06046B   23336.56308216  .00004171  00000+0  37509-3 0  9995
2 29506  97.7589 358.3094 0000874 172.8679 187.2555 14.96199784931767
AGILE                   
1 31135U 07013A   23336.23387664  .00148835  00000+0  91335-3 0  9992
2 31135   2.4639 277.3002 0004740 297.3594  62.5978 15.75193819559739
FGRST (GLAST)           
1 33053U 08029A   23336.56738487  .00004317  00000+0  20715-3 0  9990
2 33053  25.5812 124.7333 0010783 248.5403 111.3983 15.15253854854559
WISE                    
1 36119U 09071A   23336.57836371  .00030507  00000+0  56004-3 0  9996
2 36119  97.1753   7.7734 0002664 126.2352 233.9146 15.49203977777524
SDO                     
1 36395U 10005A   23335.37500779 -.00000062  00000+0  00000+0 0  9993
2 36395  32.7172 100.7139 0002243 194.9082 167.5211  1.00271587 50756
CRYOSAT 2               
1 36508U 10013A   23336.55602264  .00000502  00000+0  12387-3 0  9994
2 36508  92.0339  53.1273 0001966 191.2190 168.8974 14.51906077723483
X-SAT                   
1 37389U 11015C   23336.56205118  .00000200  00000+0  10345-3 0  9990
2 37389  98.2963 346.4356 0014078 182.9637 177.1462 14.24598614655576
GCOM-W1 (SHIZUKU)       
1 38337U 12025A   23336.45524057  .00002412  00000+0  54476-3 0  9990
2 38337  98.2192 274.2899 0001559  53.1122  61.0906 14.57153892613931
NUSTAR                  
1 38358U 12031A   23336.24095877  .00015376  00000+0  13412-2 0  9997
2 38358   6.0278  76.3003 0009538 134.2806 225.8106 14.93733699624516
NEOSSAT                 
1 39089U 13009D   23336.51993932  .00000803  00000+0  29681-3 0  9999
2 39089  98.4023 164.0828 0012062 127.6513 232.5769 14.35000280563654
BRITE-AUSTRIA           
1 39091U 13009F   23336.53653362  .00000522  00000+0  19551-3 0  9997
2 39091  98.3838 164.5240 0011283 125.8077 234.4159 14.35620665563909
IRIS                    
1 39197U 13033A   23336.47906075  .00006216  00000+0  80256-3 0  9992
2 39197  97.9640 163.2503 0027762 102.2238 258.2085 14.81052288562819
HISAKI (SPRINT-A)       
1 39253U 13049A   23336.17179661  .00000299  00000+0  31918-3 0  9998
2 39253  29.7193 257.4426 0136830  54.3572 306.9658 13.55358538505421
CASSIOPE                
1 39265U 13055A   23336.55604680  .00033203  00000+0  75560-3 0  9996
2 39265  80.9589  54.0470 0540371 156.4389 206.2607 14.59362204529467
STSAT-3                 
1 39422U 13066G   23336.51423167  .00008222  00000+0  78703-3 0  9993
2 39422  97.5022 319.6283 0019850 305.0911  54.8448 14.93284658545301
SWARM B                 
1 39451U 13067A   23336.57946080  .00005543  00000+0  26743-3 0  9996
2 39451  87.7481 261.4950 0003375  86.0759 274.0871 15.18494155541999
SWARM A                 
1 39452U 13067B   23336.58861644  .00008664  00000+0  30381-3 0  9990
2 39452  87.3466  33.9657 0003426  98.7414 261.4223 15.29294488563534
SWARM C                 
1 39453U 13067C   23336.58852378  .00008424  00000+0  29539-3 0  9992
2 39453  87.3464  32.5630 0003435  98.9905 261.1733 15.29292876563493
BRITE-CA1 (TORONTO)     
1 40020U 14033L   23336.34973433  .00003477  00000+0  57522-3 0  9994
2 40020  97.8494 115.9367 0084442   4.6062 355.5901 14.68588240505825
OCO 2                   
1 40059U 14035A   23336.56679413  .00001499  00000+0  34246-3 0  9993
2 40059  98.2192 275.1383 0001941  72.4321 287.7089 14.57133831500961
BRITE-PL2 (HEWELIUSZ)   
1 40119U 14049B   23336.26742293  .00006858  00000+0  76000-3 0  9997
2 40119  97.8835  72.1136 0015152 297.7619  62.2060 14.87536691503141
RESURS P2               
1 40360U 14087A   23336.53388243  .00022499  00000+0  41340-3 0  9996
2 40360  97.1703  58.3343 0005719 323.0355  37.0502 15.49223953498844
MMS 1                   
1 40482U 15011A   23336.58334491 -.00000525  00000+0  00000+0 0  9991
2 40482  35.5974  32.6134 9155195 127.3895  92.5162  0.28413618  1382
MMS 2                   
1 40483U 15011B   23336.58334491 -.00000525  00000+0  00000+0 0  9992
2 40483  35.6052  32.6235 9154466 127.3826  92.5166  0.28413742  1367
MMS 3                   
1 40484U 15011C   23336.58334491 -.00000525  00000+0  00000+0 0  9993
2 40484  35.5984  32.6134 9153493 127.3894  92.5163  0.28413641  1368
MMS 4                   
1 40485U 15011D   23336.58334491 -.00000525  00000+0  00000+0 0  9994
2 40485  35.6011  32.6179 9154377 127.3764  92.5478  0.28413646  1362
ASTROSAT                
1 40930U 15052A   23336.34915073  .00004538  00000+0  52404-3 0  9995
2 40930   5.9980 334.1628 0008055 149.5235 210.5361 14.78167637442089
DAMPE                   
1 41173U 15078A   23336.51607560  .00003891  00000+0  15268-3 0  9999
2 41173  97.4188 326.1681 0014738 117.1210 243.1534 15.26236454442828
PISAT                   
1 41784U 16059B   23336.56383994  .00002275  00000+0  42861-3 0  9998
2 41784  97.8532   2.5161 0029603 281.6765  78.1117 14.65203868383710
HXMT (HUIYAN)           
1 42758U 17034A   23336.37003662  .00025648  00000+0  13755-2 0  9992
2 42758  43.0159 290.3499 0002826 339.2780  20.7952 15.14502720356833
FLYING LAPTOP           
1 42831U 17042G   23336.59966834  .00004009  00000+0  38151-3 0  9992
2 42831  97.3809 164.2145 0013844  26.8296 333.3638 14.93870401347620
ZHANGZHENG-1 (CSES)     
1 43194U 18015C   23336.56697949  .00018956  00000+0  85164-3 0  9993
2 43194  97.5861 113.6861 0016549 138.8896 221.3589 15.21074701323650
SALSAT                  
1 46495U 20068K   23336.45335231  .00019150  00000+0  11808-2 0  9992
2 46495  97.7922 286.6458 0012634 268.6859  91.2922 15.09923946174448
IXPE                    
1 49954U 21121A   23336.56469303  .00008369  00000+0  66088-3 0  9997
2 49954   0.2308  56.7371 0009785 230.6478  72.5083 14.95695490108246
